ORBCOMM FM115 [+]       
1 41186U 15081H   24043.45597605  .00001900  00000+0  42443-3 0  9998
2 41186  46.9974 209.5064 0000992 288.0724  72.0054 14.60354727435995
ORBCOMM FM108 [+]       
1 41187U 15081J   24042.98059985  .00001246  00000+0  31641-3 0  9991
2 41187  47.0042 263.2803 0002733 222.1525 137.9150 14.56272456435154
ORBCOMM FM117 [+]       
1 41188U 15081K   24043.63259152  .00001499  00000+0  37296-3 0  9995
2 41188  46.9998 259.1351 0003303 234.5668 125.4909 14.56279624435297
